{"type": "FeatureCollection", "features": [ {"type": "Feature", "properties": {"norad_id": 46430, "name": "COSMOS 2251 DEB", "group": "cosmos-2251-debris", "lat": -39.537968047379685, "lon": -157.68410552997898, "alt_km": 700.4932847306327, "timestamp": "2025-12-06T07:31:40.634295+00:00", "meta": {"OBJECT_NAME": "COSMOS 2251 DEB", "OBJECT_ID": "1993-036BWU", "EPOCH": "2025-12-03T09:00:26.936928", "MEAN_MOTION": 14.51043928, "ECCENTRICITY": 0.01031866, "INCLINATION": 73.9151, "RA_OF_ASC_NODE": 14.104, "ARG_OF_PERICENTER": 295.9829, "MEAN_ANOMALY": 63.073, "EPHEMERIS_TYPE": 0, "CLASSIFICATION_TYPE": "U", "NORAD_CAT_ID": 46430, "ELEMENT_SET_NO": 999, "REV_AT_EPOCH": 79547, "BSTAR": 0.0030362826, "MEAN_MOTION_DOT": 0.00012872, "MEAN_MOTION_DDOT": 0}, "tle": {"line1": "1 46430U 93036BWU 25337.37531177  .00012872  00000+0  30363-2 0  9998", "line2": "2 46430  73.9151  14.1040 0103186 295.9829  63.0730 14.51043928795476"}}, "geometry": {"type": "Point", "coordinates": [-157.68410552997898, -39.537968047379685]}}, {"type": "Feature", "properties": {"norad_id": 46432, "name": "COSMOS 2251 DEB", "group": "cosmos-2251-debris", "lat": 61.5940294295098, "lon": -90.9210092089289, "alt_km": 1314.3958658170823, "timestamp": "2025-12-06T07:31:40.634306+00:00", "meta": {"OBJECT_NAME": "COSMOS 2251 DEB", "OBJECT_ID": "1993-036BWW", "EPOCH": "2025-11-27T18:14:15.472320", "MEAN_MOTION": 13.36590206, "ECCENTRICITY": 0.04736106, "INCLINATION": 73.8709, "RA_OF_ASC_NODE": 134.8972, "ARG_OF_PERICENTER": 254.8276, "MEAN_ANOMALY": 119.6249, "EPHEMERIS_TYPE": 0, "CLASSIFICATION_TYPE": "U", "NORAD_CAT_ID": 46432, "ELEMENT_SET_NO": 999, "REV_AT_EPOCH": 66766, "BSTAR": 0.00093134132, "MEAN_MOTION_DOT": 8.92e-06, "MEAN_MOTION_DDOT": 0}, "tle": {"line1": "1 46432U 93036BWW 25331.75990130  .00000892  00000+0  93134-3 0  9999", "line2": "2 46432  73.8709 134.8972 0473610 254.8276 119.6249 13.36590206667662"}}, "geometry": {"type": "Point", "coordinates": [-90.9210092089289, 61.5940294295098]}}, {"type": "Feature", "properties": {"norad_id": 47045, "name": "COSMOS 2251 DEB", "group": "cosmos-2251-debris", "lat": -39.75247481693401, "lon": 147.24708810911488, "alt_km": 747.6056420166979, "timestamp": "2025-12-06T07:31:40.634316+00:00", "meta": {"OBJECT_NAME": "COSMOS 2251 DEB", "OBJECT_ID": "1993-036BWZ", "EPOCH": "2025-12-03T07:08:12.151968", "MEAN_MOTION": 14.38891608, "ECCENTRICITY": 0.0030084, "INCLINATION": 74.0566, "RA_OF_ASC_NODE": 166.5562, "ARG_OF_PERICENTER": 309.0569, "MEAN_ANOMALY": 231.0781, "EPHEMERIS_TYPE": 0, "CLASSIFICATION_TYPE": "U", "NORAD_CAT_ID": 47045, "ELEMENT_SET_NO": 999, "REV_AT_EPOCH": 7669, "BSTAR": 0.00011844, "MEAN_MOTION_DOT": 3.4e-06, "MEAN_MOTION_DDOT": 0}, "tle": {"line1": "1 47045U 93036BWZ 25337.29736287  .00000340  00000+0  11844-3 0  9992", "line2": "2 47045  74.0566 166.5562 0030084 309.0569 231.0781 14.38891608 76696"}}, "geometry": {"type": "Point", "coordinates": [147.24708810911488, -39.75247481693401]}}, {"type": "Feature", "properties": {"norad_id": 47048, "name": "COSMOS 2251 DEB", "group": "cosmos-2251-debris", "lat": -59.18933309666525, "lon": -57.45839676694908, "alt_km": 792.3803439394796, "timestamp": "2025-12-06T07:31:40.634326+00:00", "meta": {"OBJECT_NAME": "COSMOS 2251 DEB", "OBJECT_ID": "1993-036BXC", "EPOCH": "2025-12-04T08:10:39.254304", "MEAN_MOTION": 14.52183959, "ECCENTRICITY": 0.0133528, "INCLINATION": 73.9778, "RA_OF_ASC_NODE": 335.0779, "ARG_OF_PERICENTER": 165.1593, "MEAN_ANOMALY": 260.296, "EPHEMERIS_TYPE": 0, "CLASSIFICATION_TYPE": "U", "NORAD_CAT_ID": 47048, "ELEMENT_SET_NO": 999, "REV_AT_EPOCH": 59568, "BSTAR": 0.002635, "MEAN_MOTION_DOT": 0.00012001, "MEAN_MOTION_DDOT": 0}, "tle": {"line1": "1 47048U 93036BXC 25338.34073211  .00012001  00000+0  26350-2 0  9997", "line2": "2 47048  73.9778 335.0779 0133528 165.1593 260.2960 14.52183959595687"}}, "geometry": {"type": "Point", "coordinates": [-57.45839676694908, -59.18933309666525]}}, {"type": "Feature", "properties": {"norad_id": 47051, "name": "COSMOS 2251 DEB", "group": "cosmos-2251-debris", "lat": 65.26144118562436, "lon": -127.6968811265422, "alt_km": 1130.1767612078556, "timestamp": "2025-12-06T07:31:40.634336+00:00", "meta": {"OBJECT_NAME": "COSMOS 2251 DEB", "OBJECT_ID": "1993-036BXF", "EPOCH": "2025-12-01T21:55:10.667424", "MEAN_MOTION": 13.67061051, "ECCENTRICITY": 0.03413205, "INCLINATION": 74.1012, "RA_OF_ASC_NODE": 201.2803, "ARG_OF_PERICENTER": 317.1785, "MEAN_ANOMALY": 62.4119, "EPHEMERIS_TYPE": 0, "CLASSIFICATION_TYPE": "U", "NORAD_CAT_ID": 47051, "ELEMENT_SET_NO": 999, "REV_AT_EPOCH": 59790, "BSTAR": 0.0015947644, "MEAN_MOTION_DOT": 1.973e-05, "MEAN_MOTION_DDOT": 0}, "tle": {"line1": "1 47051U 93036BXF 25335.91331791  .00001973  00000+0  15948-2 0  9998", "line2": "2 47051  74.1012 201.2803 0341320 317.1785  62.4119 13.67061051597908"}}, "geometry": {"type": "Point", "coordinates": [-127.6968811265422, 65.26144118562436]}}, {"type": "Feature", "properties": {"norad_id": 47052, "name": "COSMOS 2251 DEB", "group": "cosmos-2251-debris", "lat": -11.00552429758266, "lon": -11.07799769510082, "alt_km": 769.9464634167025, "timestamp": "2025-12-06T07:31:40.634346+00:00", "meta": {"OBJECT_NAME": "COSMOS 2251 DEB", "OBJECT_ID": "1993-036BXG", "EPOCH": "2025-11-29T08:23:30.956640", "MEAN_MOTION": 14.35450474, "ECCENTRICITY": 0.00577024, "INCLINATION": 74.0487, "RA_OF_ASC_NODE": 4.8695, "ARG_OF_PERICENTER": 82.9608, "MEAN_ANOMALY": 293.3927, "EPHEMERIS_TYPE": 0, "CLASSIFICATION_TYPE": "U", "NORAD_CAT_ID": 47052, "ELEMENT_SET_NO": 999, "REV_AT_EPOCH": 61597, "BSTAR": 0.00022809202, "MEAN_MOTION_DOT": 6.42e-06, "MEAN_MOTION_DDOT": 0}, "tle": {"line1": "1 47052U 93036BXG 25333.34966385  .00000642  00000+0  22809-3 0  9994", "line2": "2 47052  74.0487   4.8695 0057702  82.9608 293.3927 14.35450474615976"}}, "geometry": {"type": "Point", "coordinates": [-11.07799769510082, -11.00552429758266]}}, {"type": "Feature", "properties": {"norad_id": 47053, "name": "COSMOS 2251 DEB", "group": "cosmos-2251-debris", "lat": 66.94119152031558, "lon": -53.36970091392334, "alt_km": 753.0212129980682, "timestamp": "2025-12-06T07:31:40.634377+00:00", "meta": {"OBJECT_NAME": "COSMOS 2251 DEB", "OBJECT_ID": "1993-036BXH", "EPOCH": "2025-12-02T02:37:04.787616", "MEAN_MOTION": 13.59615746, "ECCENTRICITY": 0.03758539, "INCLINATION": 74.0601, "RA_OF_ASC_NODE": 271.2609, "ARG_OF_PERICENTER": 87.2254, "MEAN_ANOMALY": 294.2026, "EPHEMERIS_TYPE": 0, "CLASSIFICATION_TYPE": "U", "NORAD_CAT_ID": 47053, "ELEMENT_SET_NO": 999, "REV_AT_EPOCH": 28744, "BSTAR": 0.0013831144, "MEAN_MOTION_DOT": 1.616e-05, "MEAN_MOTION_DDOT": 0}, "tle": {"line1": "1 47053U 93036BXH 25336.10908319  .00001616  00000+0  13831-2 0  9991", "line2": "2 47053  74.0601 271.2609 0375853  87.2254 294.2026 13.59615746287442"}}, "geometry": {"type": "Point", "coordinates": [-53.36970091392334, 66.94119152031558]}}, {"type": "Feature", "properties": {"norad_id": 47059, "name": "COSMOS 2251 DEB", "group": "cosmos-2251-debris", "lat": -2.556720056234198, "lon": -111.9535516056055, "alt_km": 529.8051371266265, "timestamp": "2025-12-06T07:31:40.634388+00:00", "meta": {"OBJECT_NAME": "COSMOS 2251 DEB", "OBJECT_ID": "1993-036BXP", "EPOCH": "2025-11-30T02:15:08.813664", "MEAN_MOTION": 15.10829083, "ECCENTRICITY": 0.00120344, "INCLINATION": 73.9823, "RA_OF_ASC_NODE": 261.6801, "ARG_OF_PERICENTER": 69.4658, "MEAN_ANOMALY": 304.3449, "EPHEMERIS_TYPE": 0, "CLASSIFICATION_TYPE": "U", "NORAD_CAT_ID": 47059, "ELEMENT_SET_NO": 999, "REV_AT_EPOCH": 8114, "BSTAR": 0.003761596, "MEAN_MOTION_DOT": 0.00063166, "MEAN_MOTION_DDOT": 0}, "tle": {"line1": "1 47059U 93036BXP 25334.09385201  .00063166  00000+0  37616-2 0  9997", "line2": "2 47059  73.9823 261.6801 0012034  69.4658 304.3449 15.10829083 81149"}}, "geometry": {"type": "Point", "coordinates": [-111.9535516056055, -2.556720056234198]}}, {"type": "Feature", "properties": {"norad_id": 47062, "name": "COSMOS 2251 DEB", "group": "cosmos-2251-debris", "lat": 40.397694658043996, "lon": 102.82699218574493, "alt_km": 1225.8422328697397, "timestamp": "2025-12-06T07:31:40.634398+00:00", "meta": {"OBJECT_NAME": "COSMOS 2251 DEB", "OBJECT_ID": "1993-036BXS", "EPOCH": "2025-12-04T01:57:13.752288", "MEAN_MOTION": 13.7189048, "ECCENTRICITY": 0.03234575, "INCLINATION": 74.0841, "RA_OF_ASC_NODE": 92.4536, "ARG_OF_PERICENTER": 219.9964, "MEAN_ANOMALY": 322.3152, "EPHEMERIS_TYPE": 0, "CLASSIFICATION_TYPE": "U", "NORAD_CAT_ID": 47062, "ELEMENT_SET_NO": 999, "REV_AT_EPOCH": 55483, "BSTAR": 0.0040443248, "MEAN_MOTION_DOT": 5.303e-05, "MEAN_MOTION_DDOT": 0}, "tle": {"line1": "1 47062U 93036BXS 25338.08140917  .00005303  00000+0  40443-2 0  9998", "line2": "2 47062  74.0841  92.4536 0323457 219.9964 322.3152 13.71890480554832"}}, "geometry": {"type": "Point", "coordinates": [102.82699218574493, 40.397694658043996]}}, {"type": "Feature", "properties": {"norad_id": 47068, "name": "COSMOS 2251 DEB", "group": "cosmos-2251-debris", "lat": 73.33560680381945, "lon": -71.25489732698696, "alt_km": 718.6379680021901, "timestamp": "2025-12-06T07:31:40.634408+00:00", "meta": {"OBJECT_NAME": "COSMOS 2251 DEB", "OBJECT_ID": "1993-036BXY", "EPOCH": "2025-12-04T00:36:34.473600", "MEAN_MOTION": 14.53053719, "ECCENTRICITY": 0.00184817, "INCLINATION": 74.0246, "RA_OF_ASC_NODE": 219.9256, "ARG_OF_PERICENTER": 307.28, "MEAN_ANOMALY": 52.6676, "EPHEMERIS_TYPE": 0, "CLASSIFICATION_TYPE": "U", "NORAD_CAT_ID": 47068, "ELEMENT_SET_NO": 999, "REV_AT_EPOCH": 61630, "BSTAR": 0.0018552371, "MEAN_MOTION_DOT": 7.662e-05, "MEAN_MOTION_DDOT": 0}, "tle": {"line1": "1 47068U 93036BXY 25338.02539900  .00007662  00000+0  18552-2 0  9998", "line2": "2 47068  74.0246 219.9256 0018481 307.2800  52.6676 14.53053719616302"}}, "geometry": {"type": "Point", "coordinates": [-71.25489732698696, 73.33560680381945]}}]}